[
    {
        "Altitude(m)": 705270.0259583624,
        "Argument of Periapsis(deg)": 0.0022780242373254137,
        "Eccentricity": 0.0,
        "Inclination(deg)": 45.0,
        "Latitude(deg)": -10.002303796372205,
        "Longitude(deg)": 124.76655063367616,
        "Mean Anomaly(deg)": -14.056956670503867,
        "RAAN(deg)": 234.99784961170838,
        "Satellite Name": "Constellation 1 1055",
        "Satellite Number": 1055,
        "Semi-Major Axis(m)": 7083131.272910544,
        "Time(s)": 38
    },
    {
        "Altitude(m)": 705259.9878052851,
        "Argument of Periapsis(deg)": 0.002337972243570819,
        "Eccentricity": 0.0,
        "Inclination(deg)": 45.0,
        "Latitude(deg)": -9.959786756800474,
        "Longitude(deg)": 124.80659815227871,
        "Mean Anomaly(deg)": -13.996255530253903,
        "RAAN(deg)": 234.99779302254277,
        "Satellite Name": "Constellation 1 1055",
        "Satellite Number": 1055,
        "Semi-Major Axis(m)": 7083131.272910544,
        "Time(s)": 39
    },
    {
        "Altitude(m)": 705249.9663799513,
        "Argument of Periapsis(deg)": 0.0023979202498162246,
        "Eccentricity": 0.0,
        "Inclination(deg)": 45.0,
        "Latitude(deg)": -9.917263688600949,
        "Longitude(deg)": 124.84663433829574,
        "Mean Anomaly(deg)": -13.935554390004121,
        "RAAN(deg)": 234.99773643337718,
        "Satellite Name": "Constellation 1 1055",
        "Satellite Number": 1055,
        "Semi-Major Axis(m)": 7083131.272910544,
        "Time(s)": 40
    },
    {
        "Altitude(m)": 705239.9617093005,
        "Argument of Periapsis(deg)": 0.00245786825606163,
        "Eccentricity": 0.0,
        "Inclination(deg)": 45.0,
        "Latitude(deg)": -9.874734619104125,
        "Longitude(deg)": 124.88665924272048,
        "Mean Anomaly(deg)": -13.874853249754155,
        "RAAN(deg)": 234.99767984421163,
        "Satellite Name": "Constellation 1 1055",
        "Satellite Number": 1055,
        "Semi-Major Axis(m)": 7083131.272910544,
        "Time(s)": 41
    },
    {
        "Altitude(m)": 705229.9738201892,
        "Argument of Periapsis(deg)": 0.002517816262307036,
        "Eccentricity": 0.0,
        "Inclination(deg)": 45.0,
        "Latitude(deg)": -9.83219957561958,
        "Longitude(deg)": 124.92667291652263,
        "Mean Anomaly(deg)": -13.81415210950432,
        "RAAN(deg)": 234.99762325504608,
        "Satellite Name": "Constellation 1 1055",
        "Satellite Number": 1055,
        "Semi-Major Axis(m)": 7083131.272910544,
        "Time(s)": 42
    },
    {
        "Altitude(m)": 705220.0027394029,
        "Argument of Periapsis(deg)": 0.0025777642685524413,
        "Eccentricity": 0.0,
        "Inclination(deg)": 45.0,
        "Latitude(deg)": -9.789658585435282,
        "Longitude(deg)": 124.96667541064993,
        "Mean Anomaly(deg)": -13.753450969254358,
        "RAAN(deg)": 234.99756666588047,
        "Satellite Name": "Constellation 1 1055",
        "Satellite Number": 1055,
        "Semi-Major Axis(m)": 7083131.272910544,
        "Time(s)": 43
    },
    {
        "Altitude(m)": 705210.0484936343,
        "Argument of Periapsis(deg)": 0.002637712274797847,
        "Eccentricity": 0.0,
        "Inclination(deg)": 45.0,
        "Latitude(deg)": -9.747111675818234,
        "Longitude(deg)": 125.00666660793028,
        "Mean Anomaly(deg)": -13.692749829004523,
        "RAAN(deg)": 234.99751007671492,
        "Satellite Name": "Constellation 1 1055",
        "Satellite Number": 1055,
        "Semi-Major Axis(m)": 7083131.272910544,
        "Time(s)": 44
    },
    {
        "Altitude(m)": 705200.1111095109,
        "Argument of Periapsis(deg)": 0.0026976602810432526,
        "Eccentricity": 0.0,
        "Inclination(deg)": 45.0,
        "Latitude(deg)": -9.704558874014522,
        "Longitude(deg)": 125.04664689546054,
        "Mean Anomaly(deg)": -13.63204868875456,
        "RAAN(deg)": 234.99745348754936,
        "Satellite Name": "Constellation 1 1055",
        "Satellite Number": 1055,
        "Semi-Major Axis(m)": 7083131.272910544,
        "Time(s)": 45
    },
    {
        "Altitude(m)": 705190.1906135605,
        "Argument of Periapsis(deg)": 0.0027576082872886585,
        "Eccentricity": 0.0,
        "Inclination(deg)": 45.0,
        "Latitude(deg)": -9.66200020724918,
        "Longitude(deg)": 125.0866161560239,
        "Mean Anomaly(deg)": -13.57134754850475,
        "RAAN(deg)": 234.99739689838378,
        "Satellite Name": "Constellation 1 1055",
        "Satellite Number": 1055,
        "Semi-Major Axis(m)": 7083131.272910544,
        "Time(s)": 46
    },
    {
        "Altitude(m)": 705180.2870322496,
        "Argument of Periapsis(deg)": 0.0028175562935340644,
        "Eccentricity": 0.0,
        "Inclination(deg)": 45.0,
        "Latitude(deg)": -9.619435702726161,
        "Longitude(deg)": 125.1265744404789,
        "Mean Anomaly(deg)": -13.510646408254813,
        "RAAN(deg)": 234.99734030921823,
        "Satellite Name": "Constellation 1 1055",
        "Satellite Number": 1055,
        "Semi-Major Axis(m)": 7083131.272910544,
        "Time(s)": 47
    },
    {
        "Altitude(m)": 705170.4003919458,
        "Argument of Periapsis(deg)": 0.00287750429977947,
        "Eccentricity": 0.0,
        "Inclination(deg)": 45.0,
        "Latitude(deg)": -9.576865387628967,
        "Longitude(deg)": 125.16652179966145,
        "Mean Anomaly(deg)": -13.44994526800485,
        "RAAN(deg)": 234.99728372005265,
        "Satellite Name": "Constellation 1 1055",
        "Satellite Number": 1055,
        "Semi-Major Axis(m)": 7083131.272910544,
        "Time(s)": 48
    },
    {
        "Altitude(m)": 705160.5307189533,
        "Argument of Periapsis(deg)": 0.002937452306024875,
        "Eccentricity": 0.0,
        "Inclination(deg)": 45.0,
        "Latitude(deg)": -9.53428928912045,
        "Longitude(deg)": 125.2064582843856,
        "Mean Anomaly(deg)": -13.389244127755013,
        "RAAN(deg)": 234.9972271308871,
        "Satellite Name": "Constellation 1 1055",
        "Satellite Number": 1055,
        "Semi-Major Axis(m)": 7083131.272910544,
        "Time(s)": 49
    },
    {
        "Altitude(m)": 705150.678039478,
        "Argument of Periapsis(deg)": 0.0029974003122702807,
        "Eccentricity": 0.0,
        "Inclination(deg)": 45.0,
        "Latitude(deg)": -9.491707434342755,
        "Longitude(deg)": 125.24638394544341,
        "Mean Anomaly(deg)": -13.328542987505154,
        "RAAN(deg)": 234.99717054172152,
        "Satellite Name": "Constellation 1 1055",
        "Satellite Number": 1055,
        "Semi-Major Axis(m)": 7083131.272910544,
        "Time(s)": 50
    },
    {
        "Altitude(m)": 705140.8423796543,
        "Argument of Periapsis(deg)": 0.0030573483185156866,
        "Eccentricity": 0.0,
        "Inclination(deg)": 45.0,
        "Latitude(deg)": -9.44911985041754,
        "Longitude(deg)": 125.28629883360527,
        "Mean Anomaly(deg)": -13.267841847255166,
        "RAAN(deg)": 234.99711395255594,
        "Satellite Name": "Constellation 1 1055",
        "Satellite Number": 1055,
        "Semi-Major Axis(m)": 7083131.272910544,
        "Time(s)": 51
    },
    {
        "Altitude(m)": 705131.0237655386,
        "Argument of Periapsis(deg)": 0.003117296324761092,
        "Eccentricity": 0.0,
        "Inclination(deg)": 45.0,
        "Latitude(deg)": -9.40652656444624,
        "Longitude(deg)": 125.32620283152252,
        "Mean Anomaly(deg)": -13.2071407070052,
        "RAAN(deg)": 234.99705736339035,
        "Satellite Name": "Constellation 1 1055",
        "Satellite Number": 1055,
        "Semi-Major Axis(m)": 7083131.272910544,
        "Time(s)": 52
    },
    {
        "Altitude(m)": 705121.2222230969,
        "Argument of Periapsis(deg)": 0.0031772443310064975,
        "Eccentricity": 0.0,
        "Inclination(deg)": 45.0,
        "Latitude(deg)": -9.363927603510435,
        "Longitude(deg)": 125.36609632611572,
        "Mean Anomaly(deg)": -13.146439566755468,
        "RAAN(deg)": 234.9970007742248,
        "Satellite Name": "Constellation 1 1055",
        "Satellite Number": 1055,
        "Semi-Major Axis(m)": 7083131.272910544,
        "Time(s)": 53
    },
    {
        "Altitude(m)": 705111.4377782139,
        "Argument of Periapsis(deg)": 0.0032371923372519038,
        "Eccentricity": 0.0,
        "Inclination(deg)": 45.0,
        "Latitude(deg)": -9.321322994670712,
        "Longitude(deg)": 125.40597919999334,
        "Mean Anomaly(deg)": -13.085738426505506,
        "RAAN(deg)": 234.99694418505925,
        "Satellite Name": "Constellation 1 1055",
        "Satellite Number": 1055,
        "Semi-Major Axis(m)": 7083131.272910544,
        "Time(s)": 54
    },
    {
        "Altitude(m)": 705101.6704566992,
        "Argument of Periapsis(deg)": 0.0032971403434973088,
        "Eccentricity": 0.0,
        "Inclination(deg)": 45.0,
        "Latitude(deg)": -9.2787127649682,
        "Longitude(deg)": 125.4458515038387,
        "Mean Anomaly(deg)": -13.025037286255543,
        "RAAN(deg)": 234.99688759589367,
        "Satellite Name": "Constellation 1 1055",
        "Satellite Number": 1055,
        "Semi-Major Axis(m)": 7083131.272910544,
        "Time(s)": 55
    },
    {
        "Altitude(m)": 705091.9202842816,
        "Argument of Periapsis(deg)": 0.0033570883497427146,
        "Eccentricity": 0.0,
        "Inclination(deg)": 45.0,
        "Latitude(deg)": -9.236096941424034,
        "Longitude(deg)": 125.48571328831375,
        "Mean Anomaly(deg)": -12.964336146005758,
        "RAAN(deg)": 234.9968310067281,
        "Satellite Name": "Constellation 1 1055",
        "Satellite Number": 1055,
        "Semi-Major Axis(m)": 7083131.272910544,
        "Time(s)": 56
    }
]